[
    {
        "Altitude(m)": 605459.0352587599,
        "Argument of Periapsis(deg)": 0.0,
        "Eccentricity": 0.0,
        "Inclination(deg)": 60.0,
        "Latitude(deg)": 27.988234979661904,
        "Longitude(deg)": 7.7985265648441695,
        "Mean Anomaly(deg)": 32.72730000000001,
        "RAAN(deg)": 90.0,
        "Satellite Name": "Test1 398",
        "Satellite Number": 398,
        "Semi-Major Axis(m)": 6980739.136638005,
        "Time(s)": 0
    },
    {
        "Altitude(m)": 605535.8265697823,
        "Argument of Periapsis(deg)": 0.00010418945913296404,
        "Eccentricity": 0.0,
        "Inclination(deg)": 60.0,
        "Latitude(deg)": 28.5013651752471,
        "Longitude(deg)": 8.155470449755446,
        "Mean Anomaly(deg)": 33.347406145461825,
        "RAAN(deg)": 89.99957995086027,
        "Satellite Name": "Test1 398",
        "Satellite Number": 398,
        "Semi-Major Axis(m)": 6980739.136638005,
        "Time(s)": 10
    }
]